CCSDS_OMM_VERS = 2.0
CREATION_DATE  = 
ORIGINATOR     = 

OBJECT_NAME    = STARLINK-35922
OBJECT_ID      = 2025-263T
CENTER_NAME    = EARTH
REF_FRAME      = TEME
TIME_SYSTEM    = UTC
MEAN_ELEMENT_THEORY = SGP/SGP4

EPOCH          = 2025-12-11T22:00:01.999584
MEAN_MOTION    = 15.50470957
ECCENTRICITY   = .00016869
INCLINATION    = 43.0000
RA_OF_ASC_NODE = 129.8950
ARG_OF_PERICENTER = 278.3719
MEAN_ANOMALY   = 120.2159

EPHEMERIS_TYPE = 0
CLASSIFICATION_TYPE = U
NORAD_CAT_ID   = 66502
ELEMENT_SET_NO = 999
REV_AT_EPOCH   = 550
BSTAR          = .20181301E-2
MEAN_MOTION_DOT = .119415E-2
MEAN_MOTION_DDOT = 0

CCSDS_OMM_VERS = 2.0
CREATION_DATE  = 
ORIGINATOR     = 

OBJECT_NAME    = STARLINK-35917
OBJECT_ID      = 2025-263U
CENTER_NAME    = EARTH
REF_FRAME      = TEME
TIME_SYSTEM    = UTC
MEAN_ELEMENT_THEORY = SGP/SGP4

EPOCH          = 2025-12-11T20:00:01.999872
MEAN_MOTION    = 15.49488372
ECCENTRICITY   = .0001435
INCLINATION    = 43.0003
RA_OF_ASC_NODE = 130.3745
ARG_OF_PERICENTER = 271.7266
MEAN_ANOMALY   = 24.4910

EPHEMERIS_TYPE = 0
CLASSIFICATION_TYPE = U
NORAD_CAT_ID   = 66503
ELEMENT_SET_NO = 999
REV_AT_EPOCH   = 549
BSTAR          = -.40073527E-1
MEAN_MOTION_DOT = -.201763E-1
MEAN_MOTION_DDOT = 0

CCSDS_OMM_VERS = 2.0
CREATION_DATE  = 
ORIGINATOR     = 

OBJECT_NAME    = STARLINK-35916
OBJECT_ID      = 2025-263V
CENTER_NAME    = EARTH
REF_FRAME      = TEME
TIME_SYSTEM    = UTC
MEAN_ELEMENT_THEORY = SGP/SGP4

EPOCH          = 2025-12-11T18:13:29.701056
MEAN_MOTION    = 15.40730519
ECCENTRICITY   = .00019694
INCLINATION    = 43.0002
RA_OF_ASC_NODE = 132.2825
ARG_OF_PERICENTER = 261.4759
MEAN_ANOMALY   = 98.5874

EPHEMERIS_TYPE = 0
CLASSIFICATION_TYPE = U
NORAD_CAT_ID   = 66504
ELEMENT_SET_NO = 999
REV_AT_EPOCH   = 539
BSTAR          = .8844206E-3
MEAN_MOTION_DOT = .36858E-3
MEAN_MOTION_DDOT = 0

CCSDS_OMM_VERS = 2.0
CREATION_DATE  = 
ORIGINATOR     = 

OBJECT_NAME    = STARLINK-34766
OBJECT_ID      = 2025-263W
CENTER_NAME    = EARTH
REF_FRAME      = TEME
TIME_SYSTEM    = UTC
MEAN_ELEMENT_THEORY = SGP/SGP4

EPOCH          = 2025-12-11T20:00:01.999872
MEAN_MOTION    = 15.50552281
ECCENTRICITY   = .00012868
INCLINATION    = 43.0006
RA_OF_ASC_NODE = 130.3926
ARG_OF_PERICENTER = 280.5602
MEAN_ANOMALY   = 8.4639

EPHEMERIS_TYPE = 0
CLASSIFICATION_TYPE = U
NORAD_CAT_ID   = 66505
ELEMENT_SET_NO = 999
REV_AT_EPOCH   = 549
BSTAR          = -.33306969E-3
MEAN_MOTION_DOT = -.19813E-3
MEAN_MOTION_DDOT = 0

CCSDS_OMM_VERS = 2.0
CREATION_DATE  = 
ORIGINATOR     = 

OBJECT_NAME    = STARLINK-34765
OBJECT_ID      = 2025-263X
CENTER_NAME    = EARTH
REF_FRAME      = TEME
TIME_SYSTEM    = UTC
MEAN_ELEMENT_THEORY = SGP/SGP4

EPOCH          = 2025-12-11T22:00:01.999584
MEAN_MOTION    = 15.50484594
ECCENTRICITY   = .0001562
INCLINATION    = 43.0001
RA_OF_ASC_NODE = 129.9007
ARG_OF_PERICENTER = 282.8839
MEAN_ANOMALY   = 113.7657

EPHEMERIS_TYPE = 0
CLASSIFICATION_TYPE = U
NORAD_CAT_ID   = 66506
ELEMENT_SET_NO = 999
REV_AT_EPOCH   = 550
BSTAR          = .20618251E-2
MEAN_MOTION_DOT = .122109E-2
MEAN_MOTION_DDOT = 0

CCSDS_OMM_VERS = 2.0
CREATION_DATE  = 
ORIGINATOR     = 

OBJECT_NAME    = STARLINK-34767
OBJECT_ID      = 2025-263Y
CENTER_NAME    = EARTH
REF_FRAME      = TEME
TIME_SYSTEM    = UTC
MEAN_ELEMENT_THEORY = SGP/SGP4

EPOCH          = 2025-12-11T22:00:01.999584
MEAN_MOTION    = 15.46229927
ECCENTRICITY   = .00016269
INCLINATION    = 43.0002
RA_OF_ASC_NODE = 129.9092
ARG_OF_PERICENTER = 276.4317
MEAN_ANOMALY   = 116.4894

EPHEMERIS_TYPE = 0
CLASSIFICATION_TYPE = U
NORAD_CAT_ID   = 66507
ELEMENT_SET_NO = 999
REV_AT_EPOCH   = 550
BSTAR          = -.45140544E-1
MEAN_MOTION_DOT = -.2025393E-1
MEAN_MOTION_DDOT = 0

CCSDS_OMM_VERS = 2.0
CREATION_DATE  = 
ORIGINATOR     = 

OBJECT_NAME    = STARLINK-35608
OBJECT_ID      = 2025-263Z
CENTER_NAME    = EARTH
REF_FRAME      = TEME
TIME_SYSTEM    = UTC
MEAN_ELEMENT_THEORY = SGP/SGP4

EPOCH          = 2025-12-11T22:00:01.999584
MEAN_MOTION    = 15.50783828
ECCENTRICITY   = .00013338
INCLINATION    = 43.0001
RA_OF_ASC_NODE = 129.8761
ARG_OF_PERICENTER = 282.0493
MEAN_ANOMALY   = 124.1307

EPHEMERIS_TYPE = 0
CLASSIFICATION_TYPE = U
NORAD_CAT_ID   = 66508
ELEMENT_SET_NO = 999
REV_AT_EPOCH   = 550
BSTAR          = -.12875684E-1
MEAN_MOTION_DOT = -.696928E-2
MEAN_MOTION_DDOT = 0

CCSDS_OMM_VERS = 2.0
CREATION_DATE  = 
ORIGINATOR     = 

OBJECT_NAME    = STARLINK-35598
OBJECT_ID      = 2025-263AA
CENTER_NAME    = EARTH
REF_FRAME      = TEME
TIME_SYSTEM    = UTC
MEAN_ELEMENT_THEORY = SGP/SGP4

EPOCH          = 2025-12-11T20:00:01.999872
MEAN_MOTION    = 15.50529319
ECCENTRICITY   = .0001454
INCLINATION    = 43.0003
RA_OF_ASC_NODE = 130.3427
ARG_OF_PERICENTER = 281.8482
MEAN_ANOMALY   = 26.3450

EPHEMERIS_TYPE = 0
CLASSIFICATION_TYPE = U
NORAD_CAT_ID   = 66509
ELEMENT_SET_NO = 999
REV_AT_EPOCH   = 549
BSTAR          = .45643118E-3
MEAN_MOTION_DOT = .26478E-3
MEAN_MOTION_DDOT = 0

CCSDS_OMM_VERS = 2.0
CREATION_DATE  = 
ORIGINATOR     = 

OBJECT_NAME    = STARLINK-35600
OBJECT_ID      = 2025-263AB
CENTER_NAME    = EARTH
REF_FRAME      = TEME
TIME_SYSTEM    = UTC
MEAN_ELEMENT_THEORY = SGP/SGP4

EPOCH          = 2025-12-11T20:00:01.999872
MEAN_MOTION    = 15.50526892
ECCENTRICITY   = .00014466
INCLINATION    = 43.0004
RA_OF_ASC_NODE = 130.3576
ARG_OF_PERICENTER = 275.6300
MEAN_ANOMALY   = 26.8099

EPHEMERIS_TYPE = 0
CLASSIFICATION_TYPE = U
NORAD_CAT_ID   = 66510
ELEMENT_SET_NO = 999
REV_AT_EPOCH   = 549
BSTAR          = .55276903E-3
MEAN_MOTION_DOT = .3216E-3
MEAN_MOTION_DDOT = 0

CCSDS_OMM_VERS = 2.0
CREATION_DATE  = 
ORIGINATOR     = 

OBJECT_NAME    = STARLINK-35444
OBJECT_ID      = 2025-263AC
CENTER_NAME    = EARTH
REF_FRAME      = TEME
TIME_SYSTEM    = UTC
MEAN_ELEMENT_THEORY = SGP/SGP4

EPOCH          = 2025-12-11T20:00:01.999872
MEAN_MOTION    = 15.50557824
ECCENTRICITY   = .00010822
INCLINATION    = 43.0003
RA_OF_ASC_NODE = 130.3489
ARG_OF_PERICENTER = 276.4320
MEAN_ANOMALY   = 29.8475

EPHEMERIS_TYPE = 0
CLASSIFICATION_TYPE = U
NORAD_CAT_ID   = 66511
ELEMENT_SET_NO = 999
REV_AT_EPOCH   = 549
BSTAR          = -.63683263E-3
MEAN_MOTION_DOT = -.37493E-3
MEAN_MOTION_DDOT = 0

CCSDS_OMM_VERS = 2.0
CREATION_DATE  = 
ORIGINATOR     = 

OBJECT_NAME    = STARLINK-35366
OBJECT_ID      = 2025-263AD
CENTER_NAME    = EARTH
REF_FRAME      = TEME
TIME_SYSTEM    = UTC
MEAN_ELEMENT_THEORY = SGP/SGP4

EPOCH          = 2025-12-11T20:00:01.999872
MEAN_MOTION    = 15.50525565
ECCENTRICITY   = .00013336
INCLINATION    = 43.0002
RA_OF_ASC_NODE = 130.3388
ARG_OF_PERICENTER = 289.7193
MEAN_ANOMALY   = 20.3912

EPHEMERIS_TYPE = 0
CLASSIFICATION_TYPE = U
NORAD_CAT_ID   = 66512
ELEMENT_SET_NO = 999
REV_AT_EPOCH   = 549
BSTAR          = .52180615E-3
MEAN_MOTION_DOT = .3033E-3
MEAN_MOTION_DDOT = 0

CCSDS_OMM_VERS = 2.0
CREATION_DATE  = 
ORIGINATOR     = 

OBJECT_NAME    = STARLINK-35692
OBJECT_ID      = 2025-263AE
CENTER_NAME    = EARTH
REF_FRAME      = TEME
TIME_SYSTEM    = UTC
MEAN_ELEMENT_THEORY = SGP/SGP4

EPOCH          = 2025-12-11T20:00:01.999872
MEAN_MOTION    = 15.50594290
ECCENTRICITY   = .00016307
INCLINATION    = 43.0005
RA_OF_ASC_NODE = 130.3534
ARG_OF_PERICENTER = 292.6898
MEAN_ANOMALY   = 11.6262

EPHEMERIS_TYPE = 0
CLASSIFICATION_TYPE = U
NORAD_CAT_ID   = 66513
ELEMENT_SET_NO = 999
REV_AT_EPOCH   = 549
BSTAR          = -.12050396E-2
MEAN_MOTION_DOT = -.70442E-3
MEAN_MOTION_DDOT = 0

