STARLINK-35922          
1 66502U 25263T   25345.91668981  .00119415  00000+0  20181-2 0  9998
2 66502  43.0000 129.8950 0001686 278.3719 120.2159 15.50470957  5503
STARLINK-35917          
1 66503U 25263U   25345.83335648 -.02017630  00000+0 -40074-1 0  9993
2 66503  43.0003 130.3745 0001435 271.7266  24.4910 15.49488372  5498
STARLINK-35916          
1 66504U 25263V   25345.75937154  .00036858  00000+0  88442-3 0  9997
2 66504  43.0002 132.2825 0001969 261.4759  98.5874 15.40730519  5397
STARLINK-34766          
1 66505U 25263W   25345.83335648 -.00019813  00000+0 -33307-3 0  9991
2 66505  43.0006 130.3926 0001286 280.5602   8.4639 15.50552281  5493
STARLINK-34765          
1 66506U 25263X   25345.91668981  .00122109  00000+0  20618-2 0  9991
2 66506  43.0001 129.9007 0001562 282.8839 113.7657 15.50484594  5500
STARLINK-34767          
1 66507U 25263Y   25345.91668981 -.02025393  00000+0 -45141-1 0  9990
2 66507  43.0002 129.9092 0001626 276.4317 116.4894 15.46229927  5502
STARLINK-35608          
1 66508U 25263Z   25345.91668981 -.00696928  00000+0 -12876-1 0  9996
2 66508  43.0001 129.8761 0001333 282.0493 124.1307 15.50783828  5502
STARLINK-35598          
1 66509U 25263AA  25345.83335648  .00026478  00000+0  45643-3 0  9994
2 66509  43.0003 130.3427 0001454 281.8482  26.3450 15.50529319  5493
STARLINK-35600          
1 66510U 25263AB  25345.83335648  .00032160  00000+0  55277-3 0  9995
2 66510  43.0004 130.3576 0001446 275.6300  26.8099 15.50526892  5499
STARLINK-35444          
1 66511U 25263AC  25345.83335648 -.00037493  00000+0 -63683-3 0  9992
2 66511  43.0003 130.3489 0001082 276.4320  29.8475 15.50557824  5499
STARLINK-35366          
1 66512U 25263AD  25345.83335648  .00030330  00000+0  52181-3 0  9995
2 66512  43.0002 130.3388 0001333 289.7193  20.3912 15.50525565  5490
STARLINK-35692          
1 66513U 25263AE  25345.83335648 -.00070442  00000+0 -12050-2 0  9996
2 66513  43.0005 130.3534 0001630 292.6898  11.6262 15.50594290  5494
